KUIPER-00095            
1 65134U 25171C   25255.28555097  .00022663  00000+0  65061-3 0  9994
2 65134  51.8716 251.5755 0004074 270.1791  89.8728 15.35752774  6139
KUIPER-00096            
1 65135U 25171D   25255.28043827  .00021648  00000+0  61600-3 0  9995
2 65135  51.8763 251.5414 0004097 255.1322 104.9210 15.36058405  6138
KUIPER-00097            
1 65136U 25171E   25255.48207145  .00024947  00000+0  71827-3 0  9990
2 65136  51.8798 250.6508 0004861 275.4547  84.5885 15.35601157  6154
KUIPER-00098            
1 65137U 25171F   25255.27309976  .00021221  00000+0  59982-3 0  9993
2 65137  51.8772 251.4984 0005261 239.0660 120.9809 15.36276650  5473
KUIPER-00099            
1 65138U 25171G   25254.42979213  .00016667  00000+0  47429-3 0  9998
2 65138  51.8751 255.5970 0004644 239.8509 120.2018 15.36239565  5991
KUIPER-00100            
1 65139U 25171H   25255.27960773  .00020129  00000+0  57463-3 0  9991
2 65139  51.8718 251.5342 0004103 252.7045 107.3493 15.36005093  6129
KUIPER-00102            
1 65140U 25171J   25255.28594875  .00023385  00000+0  67268-3 0  9991
2 65140  51.8754 251.5756 0003516 267.4882  92.5701 15.35672807  6128
KUIPER-00103            
1 65141U 25171K   25255.28170604  .00028017  00000+0  79576-3 0  9994
2 65141  51.8751 251.5482 0003574 255.0647 104.9943 15.35966130  6129
