<?xml version="1.0" encoding="UTF-8"?>
<ndm xmlns:xsi="http://www.w3.org/2001/XMLSchema-instance" xsi:noNamespaceSchemaLocation="https://sanaregistry.org/r/ndmxml_unqualified/ndmxml-2.0.0-master-2.0.xsd">
<omm id="CCSDS_OMM_VERS" version="2.0">
<header><CREATION_DATE/><ORIGINATOR/></header><body><segment><metadata><OBJECT_NAME>KUIPER-00095</OBJECT_NAME><OBJECT_ID>2025-171C</OBJECT_ID><CENTER_NAME>EARTH</CENTER_NAME><REF_FRAME>TEME</REF_FRAME><TIME_SYSTEM>UTC</TIME_SYSTEM><MEAN_ELEMENT_THEORY>SGP4</MEAN_ELEMENT_THEORY></metadata><data><meanElements><EPOCH>2025-09-12T06:51:11.603808</EPOCH><MEAN_MOTION>15.35752774</MEAN_MOTION><ECCENTRICITY>.00040741</ECCENTRICITY><INCLINATION>51.8716</INCLINATION><RA_OF_ASC_NODE>251.5755</RA_OF_ASC_NODE><ARG_OF_PERICENTER>270.1791</ARG_OF_PERICENTER><MEAN_ANOMALY>89.8728</MEAN_ANOMALY></meanElements><tleParameters><EPHEMERIS_TYPE>0</EPHEMERIS_TYPE><CLASSIFICATION_TYPE>U</CLASSIFICATION_TYPE><NORAD_CAT_ID>65134</NORAD_CAT_ID><ELEMENT_SET_NO>999</ELEMENT_SET_NO><REV_AT_EPOCH>613</REV_AT_EPOCH><BSTAR>.65060963E-3</BSTAR><MEAN_MOTION_DOT>.22663E-3</MEAN_MOTION_DOT><MEAN_MOTION_DDOT>0</MEAN_MOTION_DDOT></tleParameters></data></segment></body></omm>
<omm id="CCSDS_OMM_VERS" version="2.0">
<header><CREATION_DATE/><ORIGINATOR/></header><body><segment><metadata><OBJECT_NAME>KUIPER-00096</OBJECT_NAME><OBJECT_ID>2025-171D</OBJECT_ID><CENTER_NAME>EARTH</CENTER_NAME><REF_FRAME>TEME</REF_FRAME><TIME_SYSTEM>UTC</TIME_SYSTEM><MEAN_ELEMENT_THEORY>SGP4</MEAN_ELEMENT_THEORY></metadata><data><meanElements><EPOCH>2025-09-12T06:43:49.866528</EPOCH><MEAN_MOTION>15.36058405</MEAN_MOTION><ECCENTRICITY>.00040974</ECCENTRICITY><INCLINATION>51.8763</INCLINATION><RA_OF_ASC_NODE>251.5414</RA_OF_ASC_NODE><ARG_OF_PERICENTER>255.1322</ARG_OF_PERICENTER><MEAN_ANOMALY>104.9210</MEAN_ANOMALY></meanElements><tleParameters><EPHEMERIS_TYPE>0</EPHEMERIS_TYPE><CLASSIFICATION_TYPE>U</CLASSIFICATION_TYPE><NORAD_CAT_ID>65135</NORAD_CAT_ID><ELEMENT_SET_NO>999</ELEMENT_SET_NO><REV_AT_EPOCH>613</REV_AT_EPOCH><BSTAR>.61599963E-3</BSTAR><MEAN_MOTION_DOT>.21648E-3</MEAN_MOTION_DOT><MEAN_MOTION_DDOT>0</MEAN_MOTION_DDOT></tleParameters></data></segment></body></omm>
<omm id="CCSDS_OMM_VERS" version="2.0">
<header><CREATION_DATE/><ORIGINATOR/></header><body><segment><metadata><OBJECT_NAME>KUIPER-00097</OBJECT_NAME><OBJECT_ID>2025-171E</OBJECT_ID><CENTER_NAME>EARTH</CENTER_NAME><REF_FRAME>TEME</REF_FRAME><TIME_SYSTEM>UTC</TIME_SYSTEM><MEAN_ELEMENT_THEORY>SGP4</MEAN_ELEMENT_THEORY></metadata><data><meanElements><EPOCH>2025-09-12T11:34:10.973280</EPOCH><MEAN_MOTION>15.35601157</MEAN_MOTION><ECCENTRICITY>.00048615</ECCENTRICITY><INCLINATION>51.8798</INCLINATION><RA_OF_ASC_NODE>250.6508</RA_OF_ASC_NODE><ARG_OF_PERICENTER>275.4547</ARG_OF_PERICENTER><MEAN_ANOMALY>84.5885</MEAN_ANOMALY></meanElements><tleParameters><EPHEMERIS_TYPE>0</EPHEMERIS_TYPE><CLASSIFICATION_TYPE>U</CLASSIFICATION_TYPE><NORAD_CAT_ID>65136</NORAD_CAT_ID><ELEMENT_SET_NO>999</ELEMENT_SET_NO><REV_AT_EPOCH>615</REV_AT_EPOCH><BSTAR>.71826823E-3</BSTAR><MEAN_MOTION_DOT>.24947E-3</MEAN_MOTION_DOT><MEAN_MOTION_DDOT>0</MEAN_MOTION_DDOT></tleParameters></data></segment></body></omm>
<omm id="CCSDS_OMM_VERS" version="2.0">
<header><CREATION_DATE/><ORIGINATOR/></header><body><segment><metadata><OBJECT_NAME>KUIPER-00098</OBJECT_NAME><OBJECT_ID>2025-171F</OBJECT_ID><CENTER_NAME>EARTH</CENTER_NAME><REF_FRAME>TEME</REF_FRAME><TIME_SYSTEM>UTC</TIME_SYSTEM><MEAN_ELEMENT_THEORY>SGP4</MEAN_ELEMENT_THEORY></metadata><data><meanElements><EPOCH>2025-09-12T06:33:15.819264</EPOCH><MEAN_MOTION>15.36276650</MEAN_MOTION><ECCENTRICITY>.00052615</ECCENTRICITY><INCLINATION>51.8772</INCLINATION><RA_OF_ASC_NODE>251.4984</RA_OF_ASC_NODE><ARG_OF_PERICENTER>239.0660</ARG_OF_PERICENTER><MEAN_ANOMALY>120.9809</MEAN_ANOMALY></meanElements><tleParameters><EPHEMERIS_TYPE>0</EPHEMERIS_TYPE><CLASSIFICATION_TYPE>U</CLASSIFICATION_TYPE><NORAD_CAT_ID>65137</NORAD_CAT_ID><ELEMENT_SET_NO>999</ELEMENT_SET_NO><REV_AT_EPOCH>547</REV_AT_EPOCH><BSTAR>.5998171E-3</BSTAR><MEAN_MOTION_DOT>.21221E-3</MEAN_MOTION_DOT><MEAN_MOTION_DDOT>0</MEAN_MOTION_DDOT></tleParameters></data></segment></body></omm>
<omm id="CCSDS_OMM_VERS" version="2.0">
<header><CREATION_DATE/><ORIGINATOR/></header><body><segment><metadata><OBJECT_NAME>KUIPER-00099</OBJECT_NAME><OBJECT_ID>2025-171G</OBJECT_ID><CENTER_NAME>EARTH</CENTER_NAME><REF_FRAME>TEME</REF_FRAME><TIME_SYSTEM>UTC</TIME_SYSTEM><MEAN_ELEMENT_THEORY>SGP4</MEAN_ELEMENT_THEORY></metadata><data><meanElements><EPOCH>2025-09-11T10:18:54.040032</EPOCH><MEAN_MOTION>15.36239565</MEAN_MOTION><ECCENTRICITY>.00046447</ECCENTRICITY><INCLINATION>51.8751</INCLINATION><RA_OF_ASC_NODE>255.5970</RA_OF_ASC_NODE><ARG_OF_PERICENTER>239.8509</ARG_OF_PERICENTER><MEAN_ANOMALY>120.2018</MEAN_ANOMALY></meanElements><tleParameters><EPHEMERIS_TYPE>0</EPHEMERIS_TYPE><CLASSIFICATION_TYPE>U</CLASSIFICATION_TYPE><NORAD_CAT_ID>65138</NORAD_CAT_ID><ELEMENT_SET_NO>999</ELEMENT_SET_NO><REV_AT_EPOCH>599</REV_AT_EPOCH><BSTAR>.47428629E-3</BSTAR><MEAN_MOTION_DOT>.16667E-3</MEAN_MOTION_DOT><MEAN_MOTION_DDOT>0</MEAN_MOTION_DDOT></tleParameters></data></segment></body></omm>
<omm id="CCSDS_OMM_VERS" version="2.0">
<header><CREATION_DATE/><ORIGINATOR/></header><body><segment><metadata><OBJECT_NAME>KUIPER-00100</OBJECT_NAME><OBJECT_ID>2025-171H</OBJECT_ID><CENTER_NAME>EARTH</CENTER_NAME><REF_FRAME>TEME</REF_FRAME><TIME_SYSTEM>UTC</TIME_SYSTEM><MEAN_ELEMENT_THEORY>SGP4</MEAN_ELEMENT_THEORY></metadata><data><meanElements><EPOCH>2025-09-12T06:42:38.107872</EPOCH><MEAN_MOTION>15.36005093</MEAN_MOTION><ECCENTRICITY>.00041036</ECCENTRICITY><INCLINATION>51.8718</INCLINATION><RA_OF_ASC_NODE>251.5342</RA_OF_ASC_NODE><ARG_OF_PERICENTER>252.7045</ARG_OF_PERICENTER><MEAN_ANOMALY>107.3493</MEAN_ANOMALY></meanElements><tleParameters><EPHEMERIS_TYPE>0</EPHEMERIS_TYPE><CLASSIFICATION_TYPE>U</CLASSIFICATION_TYPE><NORAD_CAT_ID>65139</NORAD_CAT_ID><ELEMENT_SET_NO>999</ELEMENT_SET_NO><REV_AT_EPOCH>612</REV_AT_EPOCH><BSTAR>.57463204E-3</BSTAR><MEAN_MOTION_DOT>.20129E-3</MEAN_MOTION_DOT><MEAN_MOTION_DDOT>0</MEAN_MOTION_DDOT></tleParameters></data></segment></body></omm>
<omm id="CCSDS_OMM_VERS" version="2.0">
<header><CREATION_DATE/><ORIGINATOR/></header><body><segment><metadata><OBJECT_NAME>KUIPER-00102</OBJECT_NAME><OBJECT_ID>2025-171J</OBJECT_ID><CENTER_NAME>EARTH</CENTER_NAME><REF_FRAME>TEME</REF_FRAME><TIME_SYSTEM>UTC</TIME_SYSTEM><MEAN_ELEMENT_THEORY>SGP4</MEAN_ELEMENT_THEORY></metadata><data><meanElements><EPOCH>2025-09-12T06:51:45.972000</EPOCH><MEAN_MOTION>15.35672807</MEAN_MOTION><ECCENTRICITY>.00035168</ECCENTRICITY><INCLINATION>51.8754</INCLINATION><RA_OF_ASC_NODE>251.5756</RA_OF_ASC_NODE><ARG_OF_PERICENTER>267.4882</ARG_OF_PERICENTER><MEAN_ANOMALY>92.5701</MEAN_ANOMALY></meanElements><tleParameters><EPHEMERIS_TYPE>0</EPHEMERIS_TYPE><CLASSIFICATION_TYPE>U</CLASSIFICATION_TYPE><NORAD_CAT_ID>65140</NORAD_CAT_ID><ELEMENT_SET_NO>999</ELEMENT_SET_NO><REV_AT_EPOCH>612</REV_AT_EPOCH><BSTAR>.67267595E-3</BSTAR><MEAN_MOTION_DOT>.23385E-3</MEAN_MOTION_DOT><MEAN_MOTION_DDOT>0</MEAN_MOTION_DDOT></tleParameters></data></segment></body></omm>
<omm id="CCSDS_OMM_VERS" version="2.0">
<header><CREATION_DATE/><ORIGINATOR/></header><body><segment><metadata><OBJECT_NAME>KUIPER-00103</OBJECT_NAME><OBJECT_ID>2025-171K</OBJECT_ID><CENTER_NAME>EARTH</CENTER_NAME><REF_FRAME>TEME</REF_FRAME><TIME_SYSTEM>UTC</TIME_SYSTEM><MEAN_ELEMENT_THEORY>SGP4</MEAN_ELEMENT_THEORY></metadata><data><meanElements><EPOCH>2025-09-12T06:45:39.401856</EPOCH><MEAN_MOTION>15.35966130</MEAN_MOTION><ECCENTRICITY>.00035747</ECCENTRICITY><INCLINATION>51.8751</INCLINATION><RA_OF_ASC_NODE>251.5482</RA_OF_ASC_NODE><ARG_OF_PERICENTER>255.0647</ARG_OF_PERICENTER><MEAN_ANOMALY>104.9943</MEAN_ANOMALY></meanElements><tleParameters><EPHEMERIS_TYPE>0</EPHEMERIS_TYPE><CLASSIFICATION_TYPE>U</CLASSIFICATION_TYPE><NORAD_CAT_ID>65141</NORAD_CAT_ID><ELEMENT_SET_NO>999</ELEMENT_SET_NO><REV_AT_EPOCH>612</REV_AT_EPOCH><BSTAR>.7957559E-3</BSTAR><MEAN_MOTION_DOT>.28017E-3</MEAN_MOTION_DOT><MEAN_MOTION_DDOT>0</MEAN_MOTION_DDOT></tleParameters></data></segment></body></omm>

</ndm>
